NORAD_CAT_ID,OBJECT_NAME,OBJECT_TYPE,EPOCH,MEAN_MOTION,ECCENTRICITY,INCLINATION,RA_OF_ASC_NODE,ARG_OF_PERICENTER,MEAN_ANOMALY,BSTAR,MEAN_MOTION_DOT,MEAN_MOTION_DDOT,TLE_LINE0,TLE_LINE1,TLE_LINE2,SEMIMAJOR_AXIS,PERIOD,APOGEE,PERIGEE,DECAYED
55406.0,STARLINK-5630,PAYLOAD,2024-01-19 22:39:57,14.98333452,0.0002703,69.999,230.6099,266.3775,93.7075,3.1106e-05,2.78e-06,0.0,0 STARLINK-5630,1 55406U 23014R   24019.94441966  .00000278  00000-0  31106-4 0  9991,2 55406  69.9990 230.6099 0002703 266.3775  93.7075 14.98333452 55251,6950.182,96.107,573.926,570.169,0.0
55406.0,STARLINK-5630,PAYLOAD,2024-01-20 14:41:18,14.98331683,0.0002611,69.9991,228.9267,267.9582,92.1278,-1.3587e-05,-2.55e-06,0.0,0 STARLINK-5630,1 55406U 23014R   24020.61202095 -.00000255  00000-0 -13587-4 0  9995,2 55406  69.9991 228.9267 0002611 267.9582  92.1278 14.98331683 55353,6950.188,96.107,573.867,570.238,0.0
55406.0,STARLINK-5630,PAYLOAD,2024-01-20 22:41:59,14.98329965,0.0002654,69.999,228.085,267.3762,92.7094,-3.3522e-05,-4.93e-06,0.0,0 STARLINK-5630,1 55406U 23014R   24020.94582214 -.00000493  00000-0 -33522-4 0  9990,2 55406  69.9990 228.0850 0002654 267.3762  92.7094 14.98329965 55400,6950.193,96.107,573.903,570.213,0.0
55406.0,STARLINK-5630,PAYLOAD,2024-01-21 00:18:07,14.98330208,0.0002653,69.999,227.9167,267.3883,92.6972,-3.0361e-05,-4.55e-06,0.0,0 STARLINK-5630,1 55406U 23014R   24021.01258186 -.00000455  00000-0 -30361-4 0  9993,2 55406  69.9990 227.9167 0002653 267.3883  92.6972 14.98330208 54474,6950.192,96.107,573.901,570.213,0.0
55406.0,STARLINK-5630,PAYLOAD,2024-01-21 22:43:59,14.98332857,0.0002709,69.999,225.56,265.7514,94.3335,-3.837e-06,-1.39e-06,0.0,0 STARLINK-5630,1 55406U 23014R   24021.94721777 -.00000139  00000-0 -38370-5 0  9994,2 55406  69.9990 225.5600 0002709 265.7514  94.3335 14.98332857 55559,6950.184,96.107,573.932,570.166,0.0
55406.0,STARLINK-5630,PAYLOAD,2024-01-22 00:20:07,14.98332856,0.0002708,69.999,225.3916,265.8327,94.2523,-3.5412e-06,-1.35e-06,0.0,0 STARLINK-5630,1 55406U 23014R   24022.01397764 -.00000135  00000-0 -35412-5 0  9998,2 55406  69.9990 225.3916 0002708 265.8327  94.2523 14.98332856 54623,6950.184,96.107,573.931,570.167,0.0
55406.0,STARLINK-5630,PAYLOAD,2024-01-22 22:46:00,14.98327631,0.0002694,69.999,223.0348,265.3475,94.7376,-5.4987e-07,-1e-06,0.0,0 STARLINK-5630,1 55406U 23014R   24022.94862072 -.00000100  00000-0 -54987-6 0  9990,2 55406  69.9990 223.0348 0002694 265.3475  94.7376 14.98327631 55706,6950.2,96.107,573.938,570.193,0.0
55406.0,STARLINK-5630,PAYLOAD,2024-01-23 16:23:29,14.98334194,0.0002767,69.9988,221.1825,268.5963,91.4879,2.3412e-05,1.86e-06,0.0,0 STARLINK-5630,1 55406U 23014R   24023.68297529  .00000186  00000-0  23412-4 0  9990,2 55406  69.9988 221.1825 0002767 268.5963  91.4879 14.98334194 54871,6950.18,96.107,573.968,570.122,0.0
55406.0,STARLINK-5630,PAYLOAD,2024-01-23 22:48:01,14.98334853,0.0002731,69.999,220.5096,267.7202,92.3644,3.3277e-05,3.04e-06,0.0,0 STARLINK-5630,1 55406U 23014R   24023.95001373  .00000304  00000-0  33277-4 0  9992,2 55406  69.9990 220.5096 0002731 267.7202  92.3644 14.98334853 55856,6950.178,96.107,573.941,570.145,0.0
55406.0,STARLINK-5630,PAYLOAD,2024-01-24 14:49:22,14.98327952,0.0002654,69.9992,218.8266,266.8881,93.1974,8.0282e-06,3e-08,0.0,0 STARLINK-5630,1 55406U 23014R   24024.61761827  .00000003  00000-0  80282-5 0  9998,2 55406  69.9992 218.8266 0002654 266.8881  93.1974 14.98327952 55952,6950.199,96.107,573.909,570.22,0.0
55406.0,STARLINK-5630,PAYLOAD,2024-01-24 19:37:46,14.98327428,0.0002679,69.9994,218.3216,268.1772,91.9081,6.9288e-07,-8.5e-07,0.0,0 STARLINK-5630,1 55406U 23014R   24024.81789902 -.00000085  00000-0  69288-6 0  9999,2 55406  69.9994 218.3216 0002679 268.1772  91.9081 14.98327428 55048,6950.201,96.107,573.928,570.204,0.0
55406.0,STARLINK-5630,PAYLOAD,2024-01-24 21:13:54,14.98327391,0.0002681,69.9993,218.1533,268.3602,91.725,-4.6884e-07,-9.9e-07,0.0,0 STARLINK-5630,1 55406U 23014R   24024.88465909 -.00000099  00000-0 -46884-6 0  9997,2 55406  69.9993 218.1533 0002681 268.3602  91.7250 14.98327391 55993,6950.201,96.107,573.929,570.203,0.0
55406.0,STARLINK-5630,PAYLOAD,2024-01-25 14:51:23,14.98332137,0.0002624,69.9997,216.302,270.1438,89.942,-1.4714e-05,-2.69e-06,0.0,0 STARLINK-5630,1 55406U 23014R   24025.61901639 -.00000269  00000-0 -14714-4 0  9998,2 55406  69.9997 216.3020 0002624 270.1438  89.9420 14.98332137 56109,6950.186,96.107,573.875,570.228,0.0
55406.0,STARLINK-5630,PAYLOAD,2024-01-25 19:39:47,14.98330815,0.000267,69.9998,215.7969,271.874,88.2113,-2.8951e-05,-4.38e-06,0.0,0 STARLINK-5630,1 55406U 23014R   24025.81929749 -.00000438  00000-0 -28951-4 0  9998,2 55406  69.9998 215.7969 0002670 271.8740  88.2113 14.98330815 55190,6950.19,96.107,573.911,570.2,0.0
55406.0,STARLINK-5630,PAYLOAD,2024-01-25 21:15:55,14.98331024,0.0002667,69.9998,215.6286,272.0657,88.0196,-2.595e-05,-4.03e-06,0.0,0 STARLINK-5630,1 55406U 23014R   24025.88605719 -.00000403  00000-0 -25950-4 0  9991,2 55406  69.9998 215.6286 0002667 272.0657  88.0196 14.98331024 56145,6950.19,96.107,573.908,570.201,0.0
55406.0,STARLINK-5630,PAYLOAD,2024-01-26 14:53:23,14.98331587,0.0002784,69.9998,213.7768,272.8194,87.2647,4.7135e-05,4.69e-06,0.0,0 STARLINK-5630,1 55406U 23014R   24026.62041374  .00000469  00000-0  47135-4 0  9994,2 55406  69.9998 213.7768 0002784 272.8194  87.2647 14.98331587 56251,6950.188,96.107,573.988,570.118,0.0
55406.0,STARLINK-5630,PAYLOAD,2024-01-26 19:41:47,14.98331747,0.0002792,70.0,213.2718,274.4084,85.6756,4.7289e-05,4.71e-06,0.0,0 STARLINK-5630,1 55406U 23014R   24026.82069351  .00000471  00000-0  47289-4 0  9994,2 55406  70.0000 213.2718 0002792 274.4084  85.6756 14.98331747 55343,6950.187,96.107,573.993,570.112,0.0
55406.0,STARLINK-5630,PAYLOAD,2024-01-27 11:43:09,14.98326466,0.0002671,70.0005,211.5892,273.5867,86.4987,-2.2021e-05,-3.56e-06,0.0,0 STARLINK-5630,1 55406U 23014R   24027.48829883 -.00000356  00000-0 -22021-4 0  9992,2 55406  70.0005 211.5892 0002671 273.5867  86.4987 14.98326466 55445,6950.204,96.107,573.925,570.212,0.0
55406.0,STARLINK-5630,PAYLOAD,2024-01-27 13:19:17,14.98326276,0.0002664,70.0004,211.4211,270.5535,89.5318,-2.6476e-05,-4.09e-06,0.0,0 STARLINK-5630,1 55406U 23014R   24027.55505892 -.00000409  00000-0 -26476-4 0  9998,2 55406  70.0004 211.4211 0002664 270.5535  89.5318 14.98326276 56395,6950.204,96.107,573.921,570.218,0.0
55406.0,STARLINK-5630,PAYLOAD,2024-01-27 21:19:57,14.98323944,0.00027,70.0003,210.5797,269.3048,90.7802,-5.3781e-05,-7.34e-06,0.0,0 STARLINK-5630,1 55406U 23014R   24027.88886178 -.00000734  00000-0 -53781-4 0  9993,2 55406  70.0003 210.5797 0002700 269.3048  90.7802 14.98323944 56446,6950.212,96.107,573.953,570.2,0.0
55406.0,STARLINK-5630,PAYLOAD,2024-01-28 11:45:10,14.98329047,0.0002701,70.0005,209.0649,268.0822,92.0027,-4.1827e-05,-5.92e-06,0.0,0 STARLINK-5630,1 55406U 23014R   24028.48969930 -.00000592  00000-0 -41827-4 0  9998,2 55406  70.0005 209.0649 0002701 268.0822  92.0027 14.98329047 55593,6950.196,96.107,573.938,570.184,0.0
55406.0,STARLINK-5630,PAYLOAD,2024-01-28 14:57:26,14.98328515,0.0002717,70.0004,208.7283,268.7015,91.3833,-4.625e-05,-6.45e-06,0.0,0 STARLINK-5630,1 55406U 23014R   24028.62321985 -.00000645  00000-0 -46250-4 0  9990,2 55406  70.0004 208.7283 0002717 268.7015  91.3833 14.98328515 56553,6950.197,96.107,573.951,570.174,0.0
55406.0,STARLINK-5630,PAYLOAD,2024-01-28 21:21:58,14.98329135,0.0002731,70.0003,208.0548,269.8841,90.2005,-3.3559e-05,-4.93e-06,0.0,0 STARLINK-5630,1 55406U 23014R   24028.89025941 -.00000493  00000-0 -33559-4 0  9991,2 55406  70.0003 208.0548 0002731 269.8841  90.2005 14.98329135 56596,6950.196,96.107,573.959,570.162,0.0
55406.0,STARLINK-5630,PAYLOAD,2024-01-29 11:47:10,14.98333408,0.0002973,69.9997,206.5396,272.3164,87.7655,0.00012217,1.365e-05,0.0,0 STARLINK-5630,1 55406U 23014R   24029.49109141  .00001365  00000-0  12217-3 0  9997,2 55406  69.9997 206.5396 0002973 272.3164  87.7655 14.98333408 55740,6950.182,96.107,574.114,569.981,0.0
55406.0,STARLINK-5630,PAYLOAD,2024-01-30 11:49:10,14.9834472,0.0003088,69.9995,204.0158,269.624,90.4565,0.00013911,1.568e-05,0.0,0 STARLINK-5630,1 55406U 23014R   24030.49247817  .00001568  00000-0  13911-3 0  9999,2 55406  69.9995 204.0158 0003088 269.6240  90.4565 14.98344720 55895,6950.147,96.106,574.159,569.866,0.0
55406.0,STARLINK-5630,PAYLOAD,2024-01-30 15:01:27,14.98330744,0.0003023,69.9995,203.6797,267.754,92.3273,-2.4613e-05,-3.87e-06,0.0,0 STARLINK-5630,1 55406U 23014R   24030.62600886 -.00000387  00000-0 -24613-4 0  9995,2 55406  69.9995 203.6797 0003023 267.7540  92.3273 14.98330744 56855,6950.191,96.107,574.157,569.955,0.0
55406.0,STARLINK-5630,PAYLOAD,2024-01-30 19:49:51,14.98330573,0.0003152,69.9993,203.1747,269.1313,90.9485,-3.6552e-05,-5.29e-06,0.0,0 STARLINK-5630,1 55406U 23014R   24030.82628879 -.00000529  00000-0 -36552-4 0  9992,2 55406  69.9993 203.1747 0003152 269.1313  90.9485 14.98330573 55948,6950.191,96.107,574.247,569.865,0.0
55406.0,STARLINK-5630,PAYLOAD,2024-01-30 21:25:59,14.98331371,0.0003329,69.9989,203.007,268.1274,91.9503,-3.7054e-05,-5.35e-06,0.0,0 STARLINK-5630,1 55406U 23014R   24030.89304886 -.00000535  00000-0 -37054-4 0  9993,2 55406  69.9989 203.0070 0003329 268.1274  91.9503 14.98331371 56896,6950.189,96.107,574.367,569.74,0.0
55406.0,STARLINK-5630,PAYLOAD,2024-01-31 11:51:12,14.98331629,0.0003196,69.9992,201.4909,268.6145,91.4648,-0.00023743,-2.925e-05,0.0,0 STARLINK-5630,1 55406U 23014R   24031.49389472 -.00002925  00000-0 -23743-3 0  9998,2 55406  69.9992 201.4909 0003196 268.6145  91.4648 14.98331629 56988,6950.188,96.107,574.274,569.832,0.0
55406.0,STARLINK-5630,PAYLOAD,2024-02-01 11:53:13,14.98320683,0.0002695,70.0005,198.9652,271.7649,88.3201,1.7509e-05,1.16e-06,0.0,0 STARLINK-5630,1 55406U 23014R   24032.49529327  .00000116  00000-0  17509-4 0  9996,2 55406  70.0005 198.9652 0002695 271.7649  88.3201 14.98320683 56199,6950.222,96.108,573.96,570.214,0.0
